$$SOE
2461281.500000000, A.D. 2026-Aug-29 00:00:00.0000, -2.693508669919254E+08, -4.202273871376161E+09, 5.262745066124203E+08,
2461288.500000000, A.D. 2026-Sep-05 00:00:00.0000, -2.655314115251684E+08, -4.202453733900949E+09, 5.262265874131436E+08,
2461295.500000000, A.D. 2026-Sep-12 00:00:00.0000, -2.617117586014325E+08, -4.202630973575780E+09, 5.261783334439490E+08,
2461302.500000000, A.D. 2026-Sep-19 00:00:00.0000, -2.578919122022823E+08, -4.202805591140104E+09, 5.261297448723440E+08,
2461309.500000000, A.D. 2026-Sep-26 00:00:00.0000, -2.540718759313016E+08, -4.202977587918688E+09, 5.260808218181548E+08,
2461316.500000000, A.D. 2026-Oct-03 00:00:00.0000, -2.502516529438390E+08, -4.203146965586251E+09, 5.260315643632047E+08,
2461323.500000000, A.D. 2026-Oct-10 00:00:00.0000, -2.464312459633486E+08, -4.203313726024790E+09, 5.259819725604372E+08,
2461330.500000000, A.D. 2026-Oct-17 00:00:00.0000, -2.426106573326680E+08, -4.203477871254441E+09, 5.259320464393702E+08,
2461337.500000000, A.D. 2026-Oct-24 00:00:00.0000, -2.387898890758578E+08, -4.203639403460439E+09, 5.258817860039065E+08,
2461344.500000000, A.D. 2026-Oct-31 00:00:00.0000, -2.349689428718221E+08, -4.203798325182798E+09, 5.258311912081058E+08,
2461351.500000000, A.D. 2026-Nov-07 00:00:00.0000, -2.311478196006566E+08, -4.203954639594626E+09, 5.257802618850422E+08,
2461358.500000000, A.D. 2026-Nov-14 00:00:00.0000, -2.273265182618431E+08, -4.204108349981644E+09, 5.257289976830432E+08,
2461365.500000000, A.D. 2026-Nov-21 00:00:00.0000, -2.235050360760404E+08, -4.204259457741058E+09, 5.256773982314422E+08,
2461372.500000000, A.D. 2026-Nov-28 00:00:00.0000, -2.196833707685662E+08, -4.204407961907817E+09, 5.256254633818157E+08,
2461379.500000000, A.D. 2026-Dec-05 00:00:00.0000, -2.158615214150312E+08, -4.204553860864603E+09, 5.255731931393809E+08,
2461386.500000000, A.D. 2026-Dec-12 00:00:00.0000, -2.120394876842077E+08, -4.204697153124560E+09, 5.255205875239546E+08,
2461393.500000000, A.D. 2026-Dec-19 00:00:00.0000, -2.082172693653868E+08, -4.204837837180354E+09, 5.254676465343509E+08,
2461400.500000000, A.D. 2026-Dec-26 00:00:00.0000, -2.043948663226608E+08, -4.204975911287615E+09, 5.254143701585650E+08,
2461407.500000000, A.D. 2027-Jan-02 00:00:00.0000, -2.005722786005527E+08, -4.205111373373816E+09, 5.253607583890128E+08,
2461414.500000000, A.D. 2027-Jan-09 00:00:00.0000, -1.967495065646624E+08, -4.205244221052584E+09, 5.253068112338703E+08,
2461421.500000000, A.D. 2027-Jan-16 00:00:00.0000, -1.929265510430401E+08, -4.205374451734830E+09, 5.252525287220690E+08,
2461428.500000000, A.D. 2027-Jan-23 00:00:00.0000, -1.891034134237069E+08, -4.205502062876564E+09, 5.251979108945131E+08,
2461435.500000000, A.D. 2027-Jan-30 00:00:00.0000, -1.852800955221974E+08, -4.205627052411323E+09, 5.251429577603586E+08,
2461442.500000000, A.D. 2027-Feb-06 00:00:00.0000, -1.814565987960347E+08, -4.205749419027375E+09, 5.250876692071042E+08,
2461449.500000000, A.D. 2027-Feb-13 00:00:00.0000, -1.776329233680113E+08, -4.205869161070129E+09, 5.250320450062423E+08,
2461456.500000000, A.D. 2027-Feb-20 00:00:00.0000, -1.738090692234717E+08, -4.205986274860860E+09, 5.249760850664806E+08,
2461463.500000000, A.D. 2027-Feb-27 00:00:00.0000, -1.699850381866331E+08, -4.206100755645452E+09, 5.249197895436480E+08,
2461470.500000000, A.D. 2027-Mar-06 00:00:00.0000, -1.661608336584387E+08, -4.206212599250630E+09, 5.248631586874182E+08,
2461477.500000000, A.D. 2027-Mar-13 00:00:00.0000, -1.623364597164931E+08, -4.206321802398180E+09, 5.248061927388866E+08,
2461484.500000000, A.D. 2027-Mar-20 00:00:00.0000, -1.585119207066414E+08, -4.206428362511854E+09, 5.247488919142239E+08,
2461491.500000000, A.D. 2027-Mar-27 00:00:00.0000, -1.546872211242231E+08, -4.206532277565853E+09, 5.246912564108510E+08,
2461498.500000000, A.D. 2027-Apr-03 00:00:00.0000, -1.508623655821071E+08, -4.206633546022667E+09, 5.246332864135396E+08,
2461505.500000000, A.D. 2027-Apr-10 00:00:00.0000, -1.470373588042631E+08, -4.206732166837173E+09, 5.245749820966105E+08,
2461512.500000000, A.D. 2027-Apr-17 00:00:00.0000, -1.432122056227969E+08, -4.206828139541320E+09, 5.245163436190052E+08,
2461519.500000000, A.D. 2027-Apr-24 00:00:00.0000, -1.393869108992331E+08, -4.206921464471576E+09, 5.244573710998530E+08,
2461526.500000000, A.D. 2027-May-01 00:00:00.0000, -1.355614790704144E+08, -4.207012143111283E+09, 5.243980645493186E+08,
2461533.500000000, A.D. 2027-May-08 00:00:00.0000, -1.317359130116199E+08, -4.207100177799571E+09, 5.243384237877111E+08,
2461540.500000000, A.D. 2027-May-15 00:00:00.0000, -1.279102137137808E+08, -4.207185569853376E+09, 5.242784485680842E+08,
2461547.500000000, A.D. 2027-May-22 00:00:00.0000, -1.240843823386500E+08, -4.207268318694171E+09, 5.242181388339899E+08,
2461554.500000000, A.D. 2027-May-29 00:00:00.0000, -1.202584212960028E+08, -4.207348423447642E+09, 5.241574946846690E+08,
2461561.500000000, A.D. 2027-Jun-05 00:00:00.0000, -1.164323334580311E+08, -4.207425883884611E+09, 5.240965162225621E+08,
2461568.500000000, A.D. 2027-Jun-12 00:00:00.0000, -1.126061215184549E+08, -4.207500700271353E+09, 5.240352035026503E+08,
2461575.500000000, A.D. 2027-Jun-19 00:00:00.0000, -1.087797878273771E+08, -4.207572873064362E+09, 5.239735565377262E+08,
2461582.500000000, A.D. 2027-Jun-26 00:00:00.0000, -1.049533344224629E+08, -4.207642402710855E+09, 5.239115753127918E+08,
2461589.500000000, A.D. 2027-Jul-03 00:00:00.0000, -1.011267631243151E+08, -4.207709289546727E+09, 5.238492597973540E+08,
2461596.500000000, A.D. 2027-Jul-10 00:00:00.0000, -9.730007565920356E+07, -4.207773533783237E+09, 5.237866099531941E+08,
2461603.500000000, A.D. 2027-Jul-17 00:00:00.0000, -9.347327377280177E+07, -4.207835135621270E+09, 5.237236257313488E+08,
2461610.500000000, A.D. 2027-Jul-24 00:00:00.0000, -8.964635917850012E+07, -4.207894095556003E+09, 5.236603070390670E+08,
2461617.500000000, A.D. 2027-Jul-31 00:00:00.0000, -8.581933292886835E+07, -4.207950414636433E+09, 5.235966536584907E+08,
2461624.500000000, A.D. 2027-Aug-07 00:00:00.0000, -8.199219441098811E+07, -4.208004093528072E+09, 5.235326652297630E+08,
2461631.500000000, A.D. 2027-Aug-14 00:00:00.0000, -7.816494226677662E+07, -4.208055130632090E+09, 5.234683414890265E+08,
2461638.500000000, A.D. 2027-Aug-21 00:00:00.0000, -7.433757662008062E+07, -4.208103522625110E+09, 5.234036824297214E+08,
2461645.500000000, A.D. 2027-Aug-28 00:00:00.0000, -7.051009917947888E+07, -4.208149266216422E+09, 5.233386881707869E+08,
2461652.500000000, A.D. 2027-Sep-04 00:00:00.0000, -6.668251239794142E+07, -4.208192358620326E+09, 5.232733588444870E+08,
2461659.500000000, A.D. 2027-Sep-11 00:00:00.0000, -6.285481908465800E+07, -4.208232797404888E+09, 5.232076945775747E+08,
2461666.500000000, A.D. 2027-Sep-18 00:00:00.0000, -5.902702233585332E+07, -4.208270580367201E+09, 5.231416955002136E+08,
2461673.500000000, A.D. 2027-Sep-25 00:00:00.0000, -5.519912555572663E+07, -4.208305705512538E+09, 5.230753617550473E+08,
2461680.500000000, A.D. 2027-Oct-02 00:00:00.0000, -5.137113249244901E+07, -4.208338171109513E+09, 5.230086935015318E+08,
2461687.500000000, A.D. 2027-Oct-09 00:00:00.0000, -4.754304726670326E+07, -4.208367975825332E+09, 5.229416909128363E+08,
2461694.500000000, A.D. 2027-Oct-16 00:00:00.0000, -4.371487432949844E+07, -4.208395118995625E+09, 5.228743541548181E+08,
2461701.500000000, A.D. 2027-Oct-23 00:00:00.0000, -3.988661808925305E+07, -4.208419601034131E+09, 5.228066833225777E+08,
2461708.500000000, A.D. 2027-Oct-30 00:00:00.0000, -3.605828183329672E+07, -4.208441423371561E+09, 5.227386783499639E+08,
2461715.500000000, A.D. 2027-Nov-06 00:00:00.0000, -3.222986710711687E+07, -4.208460586795240E+09, 5.226703390908306E+08,
2461722.500000000, A.D. 2027-Nov-13 00:00:00.0000, -2.840137553669983E+07, -4.208477090265465E+09, 5.226016655843928E+08,
2461729.500000000, A.D. 2027-Nov-20 00:00:00.0000, -2.457281019206378E+07, -4.208490932394334E+09, 5.225326580598943E+08,
2461736.500000000, A.D. 2027-Nov-27 00:00:00.0000, -2.074417487437080E+07, -4.208502112622425E+09, 5.224633167745068E+08,
2461743.500000000, A.D. 2027-Dec-04 00:00:00.0000, -1.691547335016285E+07, -4.208510631179339E+09, 5.223936419447887E+08,
2461750.500000000, A.D. 2027-Dec-11 00:00:00.0000, -1.308670908328932E+07, -4.208516488791980E+09, 5.223236337434680E+08,
2461757.500000000, A.D. 2027-Dec-18 00:00:00.0000, -9.257885189546278E+06, -4.208519686479596E+09, 5.222532923086951E+08,
2461764.500000000, A.D. 2027-Dec-25 00:00:00.0000, -5.429004462038106E+06, -4.208520225437609E+09, 5.221826177517366E+08,
2461771.500000000, A.D. 2028-Jan-01 00:00:00.0000, -1.600069425841033E+06, -4.208518106995577E+09, 5.221116101606119E+08,
$$EOE